NORAD_CAT_ID,OBJECT_NAME,OBJECT_TYPE,EPOCH,MEAN_MOTION,ECCENTRICITY,INCLINATION,RA_OF_ASC_NODE,ARG_OF_PERICENTER,MEAN_ANOMALY,BSTAR,MEAN_MOTION_DOT,MEAN_MOTION_DDOT,TLE_LINE0,TLE_LINE1,TLE_LINE2,SEMIMAJOR_AXIS,PERIOD,APOGEE,PERIGEE,DECAYED
53141.0,STARLINK-4103,PAYLOAD,2023-03-16 20:34:19,15.0883844,0.0001914,53.2178,22.0766,81.1581,278.9628,0.00099354,0.00015559,0.0,0 STARLINK-4103,1 53141U 22083K   23075.85716803  .00015559  00000-0  99354-3 0  9992,2 53141  53.2178  22.0766 0001914  81.1581 278.9628 15.08838440 37478,6917.885,95.438,541.074,538.426,0.0
53141.0,STARLINK-4103,PAYLOAD,2023-03-17 02:55:52,15.08834351,9.97e-05,53.2179,20.8883,72.2087,287.9013,0.0012416,0.00019524,0.0,0 STARLINK-4103,1 53141U 22083K   23076.12213086  .00019524  00000-0  12416-2 0  9997,2 53141  53.2179  20.8883 0000997  72.2087 287.9013 15.08834351 37517,6917.898,95.438,540.452,539.073,0.0
53141.0,STARLINK-4103,PAYLOAD,2023-03-18 02:46:39,15.08849847,0.0001203,53.2194,16.4334,73.3057,286.8067,0.00093961,0.00014702,0.0,0 STARLINK-4103,1 53141U 22083K   23077.11573401  .00014702  00000-0  93961-3 0  9995,2 53141  53.2194  16.4334 0001203  73.3057 286.8067 15.08849847 37665,6917.85,95.437,540.548,538.883,0.0
53141.0,STARLINK-4103,PAYLOAD,2023-03-18 12:18:58,15.0884125,0.0001898,53.2193,14.6456,65.387,294.7319,0.00028435,4.24e-05,0.0,0 STARLINK-4103,1 53141U 22083K   23077.51317853  .00004240  00000-0  28435-3 0  9996,2 53141  53.2193  14.6456 0001898  65.3870 294.7319 15.08841250 37728,6917.877,95.437,541.055,538.429,0.0
53141.0,STARLINK-4103,PAYLOAD,2023-03-19 02:37:26,15.0885668,0.0001043,53.2179,11.9703,81.6888,278.4222,0.00035126,5.309e-05,0.0,0 STARLINK-4103,1 53141U 22083K   23078.10932923  .00005309  00000-0  35126-3 0  9995,2 53141  53.2179  11.9703 0001043  81.6888 278.4222 15.08856680 37814,6917.829,95.436,540.416,538.973,0.0
53141.0,STARLINK-4103,PAYLOAD,2023-03-19 12:09:44,15.08855717,0.000101,53.218,10.1839,72.1418,287.9684,0.00077606,0.0001209,0.0,0 STARLINK-4103,1 53141U 22083K   23078.50676791  .00012090  00000-0  77606-3 0  9991,2 53141  53.2180  10.1839 0001010  72.1418 287.9684 15.08855717 37249,6917.832,95.437,540.396,538.999,0.0
53141.0,STARLINK-4103,PAYLOAD,2023-03-19 20:06:40,15.0884405,0.0002282,53.2203,8.7023,92.7909,267.3345,2.7253e-05,1.45e-06,0.0,0 STARLINK-4103,1 53141U 22083K   23078.83797313  .00000145  00000-0  27253-4 0  9993,2 53141  53.2203   8.7023 0002282  92.7909 267.3345 15.08844050 37927,6917.868,95.437,541.312,538.154,0.0
53141.0,STARLINK-4103,PAYLOAD,2023-03-20 04:03:36,15.0884896,0.0001181,53.2183,7.213,77.0301,283.0823,0.0017945,0.00028394,0.0,0 STARLINK-4103,1 53141U 22083K   23079.16917275  .00028394  00000-0  17945-2 0  9992,2 53141  53.2183   7.2130 0001181  77.0301 283.0823 15.08848960 37971,6917.853,95.437,540.535,538.901,0.0
53141.0,STARLINK-4103,PAYLOAD,2023-03-21 02:19:00,15.08850504,0.0001511,53.218,3.0502,68.4624,291.6529,0.0010226,0.00016029,0.0,0 STARLINK-4103,1 53141U 22083K   23080.09653570  .00016029  00000-0  10226-2 0  9998,2 53141  53.2180   3.0502 0001511  68.4624 291.6529 15.08850504 38116,6917.848,95.437,540.759,538.668,0.0
53141.0,STARLINK-4103,PAYLOAD,2023-03-22 03:45:10,15.08904587,0.0001271,53.2179,358.2933,124.0502,236.061,0.0025624,0.00040801,0.0,0 STARLINK-4103,1 53141U 22083K   23081.15637163  .00040801  00000-0  25624-2 0  9999,2 53141  53.2179 358.2933 0001271 124.0502 236.0610 15.08904587 38276,6917.683,95.433,540.427,538.669,0.0
53141.0,STARLINK-4103,PAYLOAD,2023-03-22 06:55:55,15.08896953,0.0001009,53.2169,357.6962,103.064,257.0465,0.0017502,0.0002772,0.0,0 STARLINK-4103,1 53141U 22083K   23081.28883794  .00027720  00000-0  17502-2 0  9997,2 53141  53.2169 357.6962 0001009 103.0640 257.0465 15.08896953 38299,6917.706,95.434,540.269,538.873,0.0
53141.0,STARLINK-4103,PAYLOAD,2023-03-23 05:11:20,15.08844727,0.0001394,53.2173,353.5348,88.714,271.4012,0.00030646,4.593e-05,0.0,0 STARLINK-4103,1 53141U 22083K   23082.21621072  .00004593  00000-0  30646-3 0  9998,2 53141  53.2173 353.5348 0001394  88.7140 271.4012 15.08844727 38434,6917.866,95.437,540.695,538.767,0.0
53141.0,STARLINK-4103,PAYLOAD,2023-03-23 21:05:13,15.08833136,0.0001632,53.2176,350.5619,46.9257,313.1872,0.00030455,4.561e-05,0.0,0 STARLINK-4103,1 53141U 22083K   23082.87862279  .00004561  00000-0  30455-3 0  9999,2 53141  53.2176 350.5619 0001632  46.9257 313.1872 15.08833136 38536,6917.901,95.438,540.895,538.637,0.0
53141.0,STARLINK-4103,PAYLOAD,2023-03-23 22:40:36,15.08837921,0.0002049,53.218,350.265,39.7564,320.3578,0.00052253,8.037e-05,0.0,0 STARLINK-4103,1 53141U 22083K   23082.94486372  .00008037  00000-0  52253-3 0  9995,2 53141  53.2180 350.2650 0002049  39.7564 320.3578 15.08837921 37917,6917.887,95.438,541.169,538.334,0.0
53141.0,STARLINK-4103,PAYLOAD,2023-03-24 05:02:07,15.08915764,0.0001244,53.217,349.0736,105.2576,254.8554,0.0039804,0.00063766,0.0,0 STARLINK-4103,1 53141U 22083K   23083.20981307  .00063766  00000-0  39804-2 0  9999,2 53141  53.2170 349.0736 0001244 105.2576 254.8554 15.08915764 38586,6917.649,95.433,540.374,538.653,0.0
53141.0,STARLINK-4103,PAYLOAD,2023-03-24 20:55:57,15.08884005,0.0001657,53.2173,346.0997,105.4411,254.6764,0.0012893,0.00020316,0.0,0 STARLINK-4103,1 53141U 22083K   23083.87219756  .00020316  00000-0  12893-2 0  9997,2 53141  53.2173 346.0997 0001657 105.4411 254.6764 15.08884005 38688,6917.746,95.435,540.757,538.465,0.0
53141.0,STARLINK-4103,PAYLOAD,2023-03-24 22:31:20,15.08889678,0.0001539,53.218,345.803,73.1859,286.9302,0.0014807,0.00023388,0.0,0 STARLINK-4103,1 53141U 22083K   23083.93843728  .00023388  00000-0  14807-2 0  9995,2 53141  53.2180 345.8030 0001539  73.1859 286.9302 15.08889678 38066,6917.729,95.434,540.658,538.529,0.0
53141.0,STARLINK-4103,PAYLOAD,2023-03-25 03:17:29,15.0888757,0.0001365,53.2173,344.9119,76.8045,283.3099,0.00091113,0.00014261,0.0,0 STARLINK-4103,1 53141U 22083K   23084.13714896  .00014261  00000-0  91113-3 0  9997,2 53141  53.2173 344.9119 0001365  76.8045 283.3099 15.08887570 38726,6917.735,95.435,540.544,538.656,0.0
53141.0,STARLINK-4103,PAYLOAD,2023-03-25 20:46:46,15.08798968,0.000123,53.2173,341.6404,90.27,269.8433,0.00067165,0.00010406,0.0,0 STARLINK-4103,1 53141U 22083K   23084.86581449  .00010406  00000-0  67165-3 0  9990,2 53141  53.2173 341.6404 0001230  90.2700 269.8433 15.08798968 38831,6918.006,95.44,540.722,539.02,0.0
53141.0,STARLINK-4103,PAYLOAD,2023-03-25 22:22:09,15.08802761,0.0001454,53.2173,341.3429,104.4907,255.6246,0.0011331,0.00017773,0.0,0 STARLINK-4103,1 53141U 22083K   23084.93205555  .00017773  00000-0  11331-2 0  9996,2 53141  53.2173 341.3429 0001454 104.4907 255.6246 15.08802761 38214,6917.994,95.44,540.865,538.853,0.0
53141.0,STARLINK-4103,PAYLOAD,2023-03-25 23:57:32,15.08804908,0.000139,53.2173,341.0457,102.7142,257.4005,0.0014324,0.0002256,0.0,0 STARLINK-4103,1 53141U 22083K   23084.99829728  .00022560  00000-0  14324-2 0  9991,2 53141  53.2173 341.0457 0001390 102.7142 257.4005 15.08804908 38851,6917.988,95.44,540.814,538.891,0.0
53141.0,STARLINK-4103,PAYLOAD,2023-03-26 20:37:35,15.08808706,0.0001635,53.2172,337.1829,112.5916,247.5249,0.00075495,0.00011737,0.0,0 STARLINK-4103,1 53141U 22083K   23085.85943942  .00011737  00000-0  75495-3 0  9993,2 53141  53.2172 337.1829 0001635 112.5916 247.5249 15.08808706 38983,6917.976,95.44,540.972,538.71,0.0
53141.0,STARLINK-4103,PAYLOAD,2023-03-26 22:12:58,15.08810622,0.0001507,53.2174,336.8841,107.6665,252.4492,0.00061729,9.542e-05,0.0,0 STARLINK-4103,1 53141U 22083K   23085.92568043  .00009542  00000-0  61729-3 0  9992,2 53141  53.2174 336.8841 0001507 107.6665 252.4492 15.08810622 38366,6917.97,95.439,540.878,538.793,0.0
53141.0,STARLINK-4103,PAYLOAD,2023-03-27 02:59:08,15.08818654,0.0001614,53.2183,335.9909,105.2862,254.8309,0.00063579,9.839e-05,0.0,0 STARLINK-4103,1 53141U 22083K   23086.12440197  .00009839  00000-0  63579-3 0  9998,2 53141  53.2183 335.9909 0001614 105.2862 254.8309 15.08818654 38392,6917.946,95.439,540.927,538.694,0.0
53141.0,STARLINK-4103,PAYLOAD,2023-03-27 20:28:22,15.08855517,0.0001462,53.2171,332.7189,106.7859,253.3293,0.0011249,0.00017668,0.0,0 STARLINK-4103,1 53141U 22083K   23086.85303792  .00017668  00000-0  11249-2 0  9992,2 53141  53.2171 332.7189 0001462 106.7859 253.3293 15.08855517 39135,6917.833,95.437,540.709,538.687,0.0
53141.0,STARLINK-4103,PAYLOAD,2023-03-27 22:03:45,15.08865115,0.0001423,53.2171,332.4213,109.2004,250.9142,0.001339,0.00021101,0.0,0 STARLINK-4103,1 53141U 22083K   23086.91927614  .00021101  00000-0  13390-2 0  9990,2 53141  53.2171 332.4213 0001423 109.2004 250.9142 15.08865115 38519,6917.804,95.436,540.653,538.684,0.0
53141.0,STARLINK-4103,PAYLOAD,2023-03-28 02:49:54,15.08882228,0.0001391,53.2175,331.5301,107.1393,252.9751,0.0015699,0.00024814,0.0,0 STARLINK-4103,1 53141U 22083K   23087.11799031  .00024814  00000-0  15699-2 0  9991,2 53141  53.2175 331.5301 0001391 107.1393 252.9751 15.08882228 39178,6917.751,95.435,540.579,538.654,0.0
53141.0,STARLINK-4103,PAYLOAD,2023-03-28 20:19:08,15.08874509,0.0001555,53.2169,328.2587,118.7606,241.3543,0.0016839,0.00026638,0.0,0 STARLINK-4103,1 53141U 22083K   23087.84662393  .00026638  00000-0  16839-2 0  9994,2 53141  53.2169 328.2587 0001555 118.7606 241.3543 15.08874509 39283,6917.775,95.435,540.716,538.564,0.0
53141.0,STARLINK-4103,PAYLOAD,2023-03-28 23:29:54,15.08876619,0.0001435,53.2165,327.6637,138.0867,222.0235,0.0017644,0.00027932,0.0,0 STARLINK-4103,1 53141U 22083K   23087.97910014  .00027932  00000-0  17644-2 0  9997,2 53141  53.2165 327.6637 0001435 138.0867 222.0235 15.08876619 38679,6917.768,95.435,540.626,538.641,0.0
53141.0,STARLINK-4103,PAYLOAD,2023-03-29 21:45:18,15.08870909,0.0002937,53.2161,323.501,51.407,308.7184,0.0020729,0.00032886,0.0,0 STARLINK-4103,1 53141U 22083K   23088.90646786  .00032886  00000-0  20729-2 0  9995,2 53141  53.2161 323.5010 0002937  51.4070 308.7184 15.08870909 38814,6917.786,95.436,541.683,537.619,0.0
